SHIYAN 20C (SY-20C)     
1 54214U 22142A   22320.91277806 -.00000136  00000+0  00000+0 0  9995
2 54214  59.9977 300.8893 0009795 290.8050  69.1934 14.27343772  2700
CZ-2D R/B               
1 54215U 22142B   22320.64280230 -.00000139  00000+0  00000+0 0  9994
2 54215  59.9039 301.0581 0024792 215.5147 144.4362 14.33510954  2675
CSS (MENGTIAN)          
1 54216U 22143A   22319.61069471 -.00000333  00000+0  00000+0 0  9999
2 54216  41.4749  16.4932 0004494 274.9745 242.2265 15.58576683 88444
2022-145A               
1 54223U 22145A   22320.22598235 -.00000581  00000+0  00000+0 0  9998
2 54223  63.8232  91.9426 6985200 269.9039  15.9315  2.01428627   276
2022-145B               
1 54224U 22145B   22320.05006781  .00000024  00000+0  00000+0 0  9991
2 54224  63.8669  91.8164 6977164 270.0550 270.7807  2.02014088   270
EUTELSAT HOTBIRD 13G    
1 54225U 22146A   22320.29104409 -.00000003  00000+0  00000+0 0  9993
2 54225  23.5976 317.4218 7893085 183.5822 221.6429  1.21334458   161
2022-146B               
1 54226U 22146B   22320.54581181 -.00000729  00000+0 -43084-2 0  9996
2 54226  27.5181 317.3166 8082129 183.9517 147.9459  1.30881342   162
2022-147A               
1 54227U 22147A   22320.55255547  .00003566  00000+0  34866-3 0  9992
2 54227  97.6518 322.9536 0011874 264.5357  95.4492 14.92918318  1764
2022-147B               
1 54228U 22147B   22320.09330244  .00014033  00000+0  13611-2 0  9995
2 54228  97.6558 322.5073 0011441 271.3231 134.5084 14.92727982  1697
ELECTRON R/B            
1 54229U 22147C   22320.83280481  .02672075  22363-5  13851-2 0  9991
2 54229  97.5310 324.3973 0152415 189.0408 266.2967 15.99256715  1906
2022-148A               
1 54230U 22148A   22320.56629556 -.00000066  00000+0  10000-3 0  9990
2 54230   0.0231 256.7627 0006853 357.2697 168.8870  1.00271492   248
2022-148B               
1 54231U 22148B   22319.73880443  .00079695  12594-7  32521-2 0  9995
2 54231  28.3972 215.3569 7219405 185.1464 158.1230  2.39737189   252
CYGNUS NG-18            
1 54232U 22149A   22319.46486606  .00010387  00000+0  18953-3 0  9998
2 54232  51.6435 307.1820 0006911  75.9727  60.4125 15.50019835368649
JPSS-2                  
1 54234U 22150A   22320.77851450 -.00010911  00000+0 -47032-2 0  9995
2 54234  98.6974 257.0983 0023532 221.1713 138.0909 14.24268710   903
YUNHAI 3                
1 54235U 22151A   22320.88843284 -.00000043  00000+0  00000+0 0  9990
2 54235  98.8073 325.8287 0027846  64.1606 296.2977 14.12229562   692
CZ-6A R/B               
1 54236U 22151B   22320.72844366  .00000300  00000+0  16773-3 0  9999
2 54236  98.8227 325.8003 0027978 338.3545  21.6445 14.17952912   668
TIANZHOU-5              
1 54237U 22152A   22319.61069471 -.00000333  00000+0  00000+0 0  9992
2 54237  41.4749  16.4932 0004494 274.9745 242.2265 15.58576683 88447
2022-152B               
1 54238U 22152B   22317.59206744 -.00002470  78170-5  00000+0 0  9997
2 54238  41.8191  28.2331 0110906 189.9453 322.0923 16.07382287   233
2022-152C               
1 54239U 22152C   22317.64998368 -.00002463  77916-5  00000+0 0  9993
2 54239  41.7341  27.7199 0089302 198.1293 297.7325 16.10213745   235
2022-152E               
1 54241U 22152E   22317.57205315 -.00002480  78482-5  00000+0 0  9999
2 54241  41.0899  28.3371 0115404 161.7471 312.9570 16.37178695   207
2022-152F               
1 54242U 22152F   22317.63703031  .34469145  72857-5  26005-2 0  9992
2 54242  41.3088  27.8107 0046962 158.9813 322.3362 16.34161841   219
2022-153A               
1 54243U 22153A   22320.66383588 -.00000135  00000+0  00000+0 0  9995
2 54243   1.6115 126.6278 2358773 181.1913 105.8542  0.72589334    45
2022-153B               
1 54244U 22153B   22320.84178130 -.00000134  00000+0  00000+0 0  9990
2 54244   1.4907 126.6970 2352058 181.6636 148.2247  0.72384723    58
FALCON 9 R/B            
1 54248U 22153C   22320.60329771  .00008348  75413-6  68203-3 0  9991
2 54248  24.4849 126.5322 8159821 181.1757  21.7962  1.29364168    31
YAOGAN-34 03            
1 54249U 22154A   22320.97787658 -.00000090  00000+0  00000+0 0  9992
2 54249  63.4107  21.4664 0010530 242.8230 117.1676 13.46739088   266
CZ-4C R/B               
1 54250U 22154B   22320.57994516 -.00008340  00000+0 -90834-2 0  9997
2 54250  63.4129  22.3368 0121594  44.7490 316.3282 13.68835508   212
2022-155A               
1 54251U 22155A   22320.79045106 -.00000064  00000+0  00000+0 0  9992
2 54251  97.5374  65.5590 0013836 291.0172 172.4582 15.09307032    84
2022-155B               
1 54252U 22155B   22320.79045716 -.00000063  00000+0  00000+0 0  9999
2 54252  97.5347  65.5576 0013276 289.3543 174.1677 15.09299994    80
2022-155C               
1 54253U 22155C   22320.92433997 -.00000063  00000+0  00000+0 0  9997
2 54253  97.5362  65.6900 0012572 283.9047 186.0439 15.09054027   104
2022-155D               
1 54254U 22155D   22320.92440646 -.00000063  00000+0  00000+0 0  9997
2 54254  97.5365  65.6890 0013077 286.9622 183.7933 15.09245533   106
2022-155E               
1 54255U 22155E   22320.79048270 -.00000064  00000+0  00000+0 0  9991
2 54255  97.5406  65.5575 0013579 287.7011 175.9640 15.09302705    80
ORION                   
1 54257U 22156A   22320.38000000 -.00015874  00000+0  00000+0 0  9993
2 54257  30.5280  10.5600 9646414  20.9260   1.0490  0.10079459    30
SLS R/B                 
1 54258U 22156B   22320.38000000 -.00015394  00000+0  00000+0 0  9991
2 54258  30.5010  10.5910 9639665  20.8820   1.0790  0.10372534    41
NOAA 1 [-]              
1 04793U 70106A   22320.45020517 -.00000047  00000+0 -21102-4 0  9992
2 04793 101.5383  20.3222 0031573  27.0695 344.5332 12.54009012376649
NOAA 2 (ITOS-D) [-]     
1 06235U 72082A   22320.40571853 -.00000021  00000+0  16098-3 0  9997
2 06235 101.9720 303.6792 0004050 140.9238  18.1694 12.53153841291008
NOAA 3 [-]              
1 06920U 73086A   22320.44285799 -.00000020  00000+0  19340-3 0  9990
2 06920 102.2264 302.5225 0006770  11.4752 143.7588 12.40350264219639
NOAA 4 [-]              
1 07529U 74089A   22320.75897642 -.00000021  00000+0  15891-3 0  9998
2 07529 101.9335 300.9422 0008840 171.2528 238.3800 12.53162391195869
NOAA 5 [-]              
1 09057U 76077A   22320.53047817 -.00000013  00000+0  24426-3 0  9997
2 09057 102.1222 287.0081 0009424 219.2519 306.6581 12.37776385 92781
TIROS N [-]             
1 11060U 78096A   22320.71598898  .00000125  00000+0  81165-4 0  9994
2 11060  98.6163  10.2811 0011533  68.2064 292.0338 14.18438919493433
NOAA 6 [-]              
1 11416U 79057A   22320.32451321  .00000238  00000+0  10168-3 0  9992
2 11416  98.6621 331.4127 0010597 164.8507 195.2996 14.33837241263289
NOAA 7 [-]              
1 12553U 81059A   22320.78406852  .00000019  00000+0  31798-4 0  9999
2 12553  98.9800   6.9507 0012151  46.4884 313.7298 14.17355753139594
NOAA 8 [-]              
1 13923U 83022A   22320.59558467  .00000126  00000+0  67487-4 0  9995
2 13923  98.6998 310.6437 0015948 122.3689 237.9038 14.28856074 64132
NOAA 9 [-]              
1 15427U 84123A   22320.43884618  .00000135  00000+0  91096-4 0  9995
2 15427  99.0661 295.3519 0015805  94.2582  68.8641 14.16245536958120
NOAA 10 [-]             
1 16969U 86073A   22320.75444390  .00000120  00000+0  65444-4 0  9999
2 16969  98.5842 304.2209 0011355 222.9885 188.1675 14.28244986882833
NOAA 11 [-]             
1 19531U 88089A   22320.40820080  .00000066  00000+0  54551-4 0  9998
2 19531  98.4411 301.2558 0012282  99.7433 260.5129 14.15334587762317
NOAA 12 [-]             
1 21263U 91032A   22320.75200921  .00000082  00000+0  52360-4 0  9993
2 21263  98.5224 316.3644 0012521 252.4874 107.4939 14.26028680638698
NOAA 13 [-]             
1 22739U 93050A   22320.42248823  .00000133  00000+0  93767-4 0  9994
2 22739  98.5250 292.7818 0008400 269.2760  90.7450 14.12881909508512
NOAA 14 [-]             
1 23455U 94089A   22320.81082383  .00000031  00000+0  37696-4 0  9999
2 23455  98.4382 339.2096 0008448 243.3931 116.6378 14.14219689438480
NOAA 15 [B]             
1 25338U 98030A   22320.80274798  .00000136  00000+0  75158-4 0  9994
2 25338  98.6306 348.2518 0009882 208.2156 151.8490 14.26196885274985
NOAA 16 [-]             
1 26536U 00055A   22320.53358856  .00000063  00000+0  55972-4 0  9994
2 26536  98.6174  14.0464 0011609  91.8711 268.3791 14.13359235438830
NOAA 17 [-]             
1 27453U 02032A   22320.57415237  .00000151  00000+0  82917-4 0  9998
2 27453  98.6894 264.1660 0011585 184.4281 175.6798 14.25166552 60523
NOAA 18 [B]             
1 28654U 05018A   22320.75715711  .00000140  00000+0  99290-4 0  9999
2 28654  98.9348  30.9638 0013329 259.9374 100.0294 14.12807814901578
NOAA 19 [+]             
1 33591U 09005A   22320.77590748  .00000153  00000+0  10751-3 0  9996
2 33591  99.1315 357.9977 0014755 118.8465 241.4188 14.12638694709955
SUOMI NPP [+]           
1 37849U 11061A   22320.80331883  .00000095  00000+0  65955-4 0  9990
2 37849  98.7466 257.3173 0001032  89.3232 350.8687 14.19561371572801
NOAA 20 [+]             
1 43013U 17073A   22320.75170109  .00000075  00000+0  56424-4 0  9994
2 43013  98.7305 256.9962 0001091  55.0520 305.0758 14.19559760258833
CELESTIS-02             
1 25160U 98007D   22320.66839399 -.00000013  00000+0  51864-4 0  9992
2 25160 107.9827 213.2851 0063345 211.2741 210.6299 14.21663747284713
CELESTIS-03             
1 26034U 99070C   22320.51155565  .00019624  00000+0  79024-3 0  9998
2 26034  98.3058 342.1609 0008015 342.9533  17.1431 15.24893138244199
O3B FM5                 
1 39188U 13031A   22320.39403282 -.00000018  00000+0  00000+0 0  9995
2 39188   0.0659  12.4140 0002760 227.9259 119.6387  5.00115392171554
O3B FM4                 
1 39189U 13031B   22320.25010810 -.00000018  00000+0  00000+0 0  9992
2 39189   0.0448 353.0111 0002713 247.1815 119.7864  5.00115874171571
